{
  "type": "FeatureCollection",
  "features": [
    {
      "type": "Feature",
      "properties": {
        "norad_id": 35888,
        "name": "COSMOS 2251 DEB",
        "group": "cosmos-2251-debris",
        "lat": -2.3842840700582038,
        "lon": 172.12604545365062,
        "alt_km": 684.1032953715503,
        "timestamp": "2025-12-15T11:38:37.548850+00:00",
        "meta_object_name": "COSMOS 2251 DEB",
        "meta_object_id": "1993-036AUB",
        "meta_epoch": "2025-12-13T17:39:16.507872",
        "meta_mean_motion": 14.58323448,
        "meta_eccentricity": 0.00481838,
        "meta_inclination": 74.0339,
        "meta_ra_of_asc_node": 354.7717,
        "meta_arg_of_pericenter": 126.5849,
        "meta_mean_anomaly": 233.9764,
        "meta_ephemeris_type": 0,
        "meta_classification_type": "U",
        "meta_norad_cat_id": 35888,
        "meta_element_set_no": 999,
        "meta_rev_at_epoch": 86288,
        "meta_bstar": 0.00051301683,
        "meta_mean_motion_dot": 2.383e-05,
        "meta_mean_motion_ddot": 0,
        "tle_line1": "1 35888U 93036AUB 25347.73560773  .00002383  00000+0  51302-3 0  9991",
        "tle_line2": "2 35888  74.0339 354.7717 0048183 126.5849 233.9764 14.58323448862881"
      },
      "geometry": {
        "type": "Point",
        "coordinates": [
          172.12604545365062,
          -2.3842840700582038
        ]
      }
    },
    {
      "type": "Feature",
      "properties": {
        "norad_id": 35890,
        "name": "COSMOS 2251 DEB",
        "group": "cosmos-2251-debris",
        "lat": -34.26355447748138,
        "lon": 68.77183336582887,
        "alt_km": 738.3383891917229,
        "timestamp": "2025-12-15T11:38:37.548859+00:00",
        "meta_object_name": "COSMOS 2251 DEB",
        "meta_object_id": "1993-036AUD",
        "meta_epoch": "2025-12-13T10:53:03.299424",
        "meta_mean_motion": 14.57503186,
        "meta_eccentricity": 0.00538039,
        "meta_inclination": 73.9362,
        "meta_ra_of_asc_node": 241.3354,
        "meta_arg_of_pericenter": 5.8757,
        "meta_mean_anomaly": 354.3025,
        "meta_ephemeris_type": 0,
        "meta_classification_type": "U",
        "meta_norad_cat_id": 35890,
        "meta_element_set_no": 999,
        "meta_rev_at_epoch": 65161,
        "meta_bstar": 0.0029822973,
        "meta_mean_motion_dot": 0.00013825,
        "meta_mean_motion_ddot": 0,
        "tle_line1": "1 35890U 93036AUD 25347.45351041  .00013825  00000+0  29823-2 0  9994",
        "tle_line2": "2 35890  73.9362 241.3354 0053803   5.8757 354.3025 14.57503186651611"
      },
      "geometry": {
        "type": "Point",
        "coordinates": [
          68.77183336582887,
          -34.26355447748138
        ]
      }
    },
    {
      "type": "Feature",
      "properties": {
        "norad_id": 35891,
        "name": "COSMOS 2251 DEB",
        "group": "cosmos-2251-debris",
        "lat": 36.40874732086255,
        "lon": -104.24071375581993,
        "alt_km": 454.75577176884417,
        "timestamp": "2025-12-15T11:38:37.548870+00:00",
        "meta_object_name": "COSMOS 2251 DEB",
        "meta_object_id": "1993-036AUE",
        "meta_epoch": "2025-12-12T23:31:35.861952",
        "meta_mean_motion": 15.33352498,
        "meta_eccentricity": 0.00436495,
        "meta_inclination": 73.9891,
        "meta_ra_of_asc_node": 93.3587,
        "meta_arg_of_pericenter": 223.8568,
        "meta_mean_anomaly": 135.9169,
        "meta_ephemeris_type": 0,
        "meta_classification_type": "U",
        "meta_norad_cat_id": 35891,
        "meta_element_set_no": 999,
        "meta_rev_at_epoch": 67224,
        "meta_bstar": 0.0018817485,
        "meta_mean_motion_dot": 0.00063011,
        "meta_mean_motion_ddot": 0,
        "tle_line1": "1 35891U 93036AUE 25346.98027618  .00063011  00000+0  18817-2 0  9995",
        "tle_line2": "2 35891  73.9891  93.3587 0043649 223.8568 135.9169 15.33352498672248"
      },
      "geometry": {
        "type": "Point",
        "coordinates": [
          -104.24071375581993,
          36.40874732086255
        ]
      }
    },
    {
      "type": "Feature",
      "properties": {
        "norad_id": 35895,
        "name": "COSMOS 2251 DEB",
        "group": "cosmos-2251-debris",
        "lat": -53.34412009498227,
        "lon": -174.49543852114178,
        "alt_km": 1026.4748568727418,
        "timestamp": "2025-12-15T11:38:37.548879+00:00",
        "meta_object_name": "COSMOS 2251 DEB",
        "meta_object_id": "1993-036AUJ",
        "meta_epoch": "2025-12-11T07:10:31.732032",
        "meta_mean_motion": 14.01513994,
        "meta_eccentricity": 0.01987879,
        "meta_inclination": 74.0502,
        "meta_ra_of_asc_node": 350.1634,
        "meta_arg_of_pericenter": 88.7843,
        "meta_mean_anomaly": 273.6056,
        "meta_ephemeris_type": 0,
        "meta_classification_type": "U",
        "meta_norad_cat_id": 35895,
        "meta_element_set_no": 999,
        "meta_rev_at_epoch": 58992,
        "meta_bstar": 0.0020881347,
        "meta_mean_motion_dot": 3.73e-05,
        "meta_mean_motion_ddot": 0,
        "tle_line1": "1 35895U 93036AUJ 25345.29897838  .00003730  00000+0  20881-2 0  9997",
        "tle_line2": "2 35895  74.0502 350.1634 0198787  88.7843 273.6056 14.01513994589929"
      },
      "geometry": {
        "type": "Point",
        "coordinates": [
          -174.49543852114178,
          -53.34412009498227
        ]
      }
    },
    {
      "type": "Feature",
      "properties": {
        "norad_id": 35898,
        "name": "COSMOS 2251 DEB",
        "group": "cosmos-2251-debris",
        "lat": -56.519562004104785,
        "lon": -93.81863080458223,
        "alt_km": 628.4618334514234,
        "timestamp": "2025-12-15T11:38:37.548889+00:00",
        "meta_object_name": "COSMOS 2251 DEB",
        "meta_object_id": "1993-036AUM",
        "meta_epoch": "2025-12-11T03:33:58.696128",
        "meta_mean_motion": 14.94658859,
        "meta_eccentricity": 0.00792199,
        "meta_inclination": 73.9916,
        "meta_ra_of_asc_node": 300.6702,
        "meta_arg_of_pericenter": 84.5945,
        "meta_mean_anomaly": 290.8859,
        "meta_ephemeris_type": 0,
        "meta_classification_type": "U",
        "meta_norad_cat_id": 35898,
        "meta_element_set_no": 999,
        "meta_rev_at_epoch": 66786,
        "meta_bstar": 0.001087469,
        "meta_mean_motion_dot": 0.00012532,
        "meta_mean_motion_ddot": 0,
        "tle_line1": "1 35898U 93036AUM 25345.14859602  .00012532  00000+0  10875-2 0  9993",
        "tle_line2": "2 35898  73.9916 300.6702 0079219  84.5945 290.8859 14.94658859667864"
      },
      "geometry": {
        "type": "Point",
        "coordinates": [
          -93.81863080458223,
          -56.519562004104785
        ]
      }
    },
    {
      "type": "Feature",
      "properties": {
        "norad_id": 35901,
        "name": "COSMOS 2251 DEB",
        "group": "cosmos-2251-debris",
        "lat": 63.132640812603476,
        "lon": 51.69306928063286,
        "alt_km": 537.2354111056729,
        "timestamp": "2025-12-15T11:38:37.548900+00:00",
        "meta_object_name": "COSMOS 2251 DEB",
        "meta_object_id": "1993-036AUQ",
        "meta_epoch": "2025-12-07T10:36:21.692736",
        "meta_mean_motion": 15.06319673,
        "meta_eccentricity": 0.00066034,
        "meta_inclination": 74.0121,
        "meta_ra_of_asc_node": 33.7639,
        "meta_arg_of_pericenter": 0.5644,
        "meta_mean_anomaly": 13.1472,
        "meta_ephemeris_type": 0,
        "meta_classification_type": "U",
        "meta_norad_cat_id": 35901,
        "meta_element_set_no": 999,
        "meta_rev_at_epoch": 86047,
        "meta_bstar": 0.0047775116,
        "meta_mean_motion_dot": 0.0007096,
        "meta_mean_motion_ddot": 0,
        "tle_line1": "1 35901U 93036AUQ 25341.44191774  .00070960  00000+0  47775-2 0  9994",
        "tle_line2": "2 35901  74.0121  33.7639 0006603   0.5644  13.1472 15.06319673860474"
      },
      "geometry": {
        "type": "Point",
        "coordinates": [
          51.69306928063286,
          63.132640812603476
        ]
      }
    },
    {
      "type": "Feature",
      "properties": {
        "norad_id": 35902,
        "name": "COSMOS 2251 DEB",
        "group": "cosmos-2251-debris",
        "lat": -71.35806775929419,
        "lon": 171.226043510205,
        "alt_km": 776.2976111181251,
        "timestamp": "2025-12-15T11:38:37.548910+00:00",
        "meta_object_name": "COSMOS 2251 DEB",
        "meta_object_id": "1993-036AUR",
        "meta_epoch": "2025-12-12T01:33:56.017152",
        "meta_mean_motion": 14.26898947,
        "meta_eccentricity": 0.01020569,
        "meta_inclination": 73.9828,
        "meta_ra_of_asc_node": 235.8058,
        "meta_arg_of_pericenter": 350.6999,
        "meta_mean_anomaly": 9.2255,
        "meta_ephemeris_type": 0,
        "meta_classification_type": "U",
        "meta_norad_cat_id": 35902,
        "meta_element_set_no": 999,
        "meta_rev_at_epoch": 61120,
        "meta_bstar": 0.0016300387,
        "meta_mean_motion_dot": 4.159e-05,
        "meta_mean_motion_ddot": 0,
        "tle_line1": "1 35902U 93036AUR 25346.06523168  .00004159  00000+0  16300-2 0  9991",
        "tle_line2": "2 35902  73.9828 235.8058 0102056 350.6999   9.2255 14.26898947611205"
      },
      "geometry": {
        "type": "Point",
        "coordinates": [
          171.226043510205,
          -71.35806775929419
        ]
      }
    }
  ]
}